{"type": "FeatureCollection", "features": [ {"type": "Feature", "properties": {"norad_id": 33723, "name": "FENGYUN 1C DEB", "group": "fengyun-1c-debris", "lat": 41.85118164226866, "lon": -98.2398974402885, "alt_km": 915.586587224625, "timestamp": "2025-12-18T17:50:15.243675+00:00", "meta": {"OBJECT_NAME": "FENGYUN 1C DEB", "OBJECT_ID": "1999-025DHL", "EPOCH": "2025-12-16T01:12:14.279328", "MEAN_MOTION": 14.13320394, "ECCENTRICITY": 0.00985748, "INCLINATION": 99.154, "RA_OF_ASC_NODE": 70.7017, "ARG_OF_PERICENTER": 321.0566, "MEAN_ANOMALY": 161.7172, "EPHEMERIS_TYPE": 0, "CLASSIFICATION_TYPE": "U", "NORAD_CAT_ID": 33723, "ELEMENT_SET_NO": 999, "REV_AT_EPOCH": 63670, "BSTAR": 0.0015495124, "MEAN_MOTION_DOT": 2.998e-05, "MEAN_MOTION_DDOT": 0}, "tle": {"line1": "1 33723U 99025DHL 25350.05016527  .00002998  00000+0  15495-2 0  9997", "line2": "2 33723  99.1540  70.7017 0098574 321.0566 161.7172 14.13320394636703"}}, "geometry": {"type": "Point", "coordinates": [-98.2398974402885, 41.85118164226866]}}, {"type": "Feature", "properties": {"norad_id": 33724, "name": "FENGYUN 1C DEB", "group": "fengyun-1c-debris", "lat": 7.213217532745373, "lon": 1.7830095842524896, "alt_km": 846.7956627299554, "timestamp": "2025-12-18T17:50:15.243686+00:00", "meta": {"OBJECT_NAME": "FENGYUN 1C DEB", "OBJECT_ID": "1999-025DHM", "EPOCH": "2025-12-18T07:43:27.276672", "MEAN_MOTION": 14.19656608, "ECCENTRICITY": 0.00276951, "INCLINATION": 98.6034, "RA_OF_ASC_NODE": 2.4715, "ARG_OF_PERICENTER": 165.5642, "MEAN_ANOMALY": 209.5705, "EPHEMERIS_TYPE": 0, "CLASSIFICATION_TYPE": "U", "NORAD_CAT_ID": 33724, "ELEMENT_SET_NO": 999, "REV_AT_EPOCH": 94041, "BSTAR": 0.00037282587, "MEAN_MOTION_DOT": 7.48e-06, "MEAN_MOTION_DDOT": 0}, "tle": {"line1": "1 33724U 99025DHM 25352.32184348  .00000748  00000+0  37283-3 0  9998", "line2": "2 33724  98.6034   2.4715 0027695 165.5642 209.5705 14.19656608940410"}}, "geometry": {"type": "Point", "coordinates": [1.7830095842524896, 7.213217532745373]}}, {"type": "Feature", "properties": {"norad_id": 33726, "name": "FENGYUN 1C DEB", "group": "fengyun-1c-debris", "lat": -59.872783318657426, "lon": -78.42724628389892, "alt_km": 945.0564064681057, "timestamp": "2025-12-18T17:50:15.243696+00:00", "meta": {"OBJECT_NAME": "FENGYUN 1C DEB", "OBJECT_ID": "1999-025DHP", "EPOCH": "2025-12-18T03:41:23.154144", "MEAN_MOTION": 14.1431231, "ECCENTRICITY": 0.01924925, "INCLINATION": 98.6391, "RA_OF_ASC_NODE": 116.1898, "ARG_OF_PERICENTER": 15.6036, "MEAN_ANOMALY": 107.2674, "EPHEMERIS_TYPE": 0, "CLASSIFICATION_TYPE": "U", "NORAD_CAT_ID": 33726, "ELEMENT_SET_NO": 999, "REV_AT_EPOCH": 92008, "BSTAR": 0.00023538206, "MEAN_MOTION_DOT": 4.94e-06, "MEAN_MOTION_DDOT": 0}, "tle": {"line1": "1 33726U 99025DHP 25352.15374021  .00000494  00000+0  23538-3 0  9996", "line2": "2 33726  98.6391 116.1898 0192492  15.6036 107.2674 14.14312310920087"}}, "geometry": {"type": "Point", "coordinates": [-78.42724628389892, -59.872783318657426]}}, {"type": "Feature", "properties": {"norad_id": 33728, "name": "FENGYUN 1C DEB", "group": "fengyun-1c-debris", "lat": 73.44510793360003, "lon": 17.328432902847762, "alt_km": 632.1978590828712, "timestamp": "2025-12-18T17:50:15.243706+00:00", "meta": {"OBJECT_NAME": "FENGYUN 1C DEB", "OBJECT_ID": "1999-025DHR", "EPOCH": "2025-12-15T02:36:45.443520", "MEAN_MOTION": 14.92661596, "ECCENTRICITY": 0.01477512, "INCLINATION": 98.9799, "RA_OF_ASC_NODE": 45.3242, "ARG_OF_PERICENTER": 207.3761, "MEAN_ANOMALY": 151.9615, "EPHEMERIS_TYPE": 0, "CLASSIFICATION_TYPE": "U", "NORAD_CAT_ID": 33728, "ELEMENT_SET_NO": 999, "REV_AT_EPOCH": 98335, "BSTAR": 0.00045899111, "MEAN_MOTION_DOT": 5.769e-05, "MEAN_MOTION_DDOT": 0}, "tle": {"line1": "1 33728U 99025DHR 25349.10885930  .00005769  00000+0  45899-3 0  9999", "line2": "2 33728  98.9799  45.3242 0147751 207.3761 151.9615 14.92661596983352"}}, "geometry": {"type": "Point", "coordinates": [17.328432902847762, 73.44510793360003]}}, {"type": "Feature", "properties": {"norad_id": 33730, "name": "FENGYUN 1C DEB", "group": "fengyun-1c-debris", "lat": 76.52610612800753, "lon": 9.35524059177292, "alt_km": 673.1340104286346, "timestamp": "2025-12-18T17:50:15.243716+00:00", "meta": {"OBJECT_NAME": "FENGYUN 1C DEB", "OBJECT_ID": "1999-025DHT", "EPOCH": "2025-12-17T10:18:00.572256", "MEAN_MOTION": 14.63540792, "ECCENTRICITY": 0.00393712, "INCLINATION": 99.0546, "RA_OF_ASC_NODE": 49.6389, "ARG_OF_PERICENTER": 356.5197, "MEAN_ANOMALY": 3.5723, "EPHEMERIS_TYPE": 0, "CLASSIFICATION_TYPE": "U", "NORAD_CAT_ID": 33730, "ELEMENT_SET_NO": 999, "REV_AT_EPOCH": 95748, "BSTAR": 0.0011805307, "MEAN_MOTION_DOT": 6.139e-05, "MEAN_MOTION_DDOT": 0}, "tle": {"line1": "1 33730U 99025DHT 25351.42917329  .00006139  00000+0  11805-2 0  9999", "line2": "2 33730  99.0546  49.6389 0039371 356.5197   3.5723 14.63540792957483"}}, "geometry": {"type": "Point", "coordinates": [9.35524059177292, 76.52610612800753]}}, {"type": "Feature", "properties": {"norad_id": 33731, "name": "FENGYUN 1C DEB", "group": "fengyun-1c-debris", "lat": -79.35294850122706, "lon": 77.43950558296845, "alt_km": 970.4160483232617, "timestamp": "2025-12-18T17:50:15.243726+00:00", "meta": {"OBJECT_NAME": "FENGYUN 1C DEB", "OBJECT_ID": "1999-025DHU", "EPOCH": "2025-12-14T07:32:51.114336", "MEAN_MOTION": 13.95346461, "ECCENTRICITY": 0.01291818, "INCLINATION": 99.4471, "RA_OF_ASC_NODE": 10.5718, "ARG_OF_PERICENTER": 51.9301, "MEAN_ANOMALY": 309.3431, "EPHEMERIS_TYPE": 0, "CLASSIFICATION_TYPE": "U", "NORAD_CAT_ID": 33731, "ELEMENT_SET_NO": 999, "REV_AT_EPOCH": 90471, "BSTAR": 0.0013457717, "MEAN_MOTION_DOT": 1.908e-05, "MEAN_MOTION_DDOT": 0}, "tle": {"line1": "1 33731U 99025DHU 25348.31448049  .00001908  00000+0  13458-2 0  9997", "line2": "2 33731  99.4471  10.5718 0129181  51.9301 309.3431 13.95346461904712"}}, "geometry": {"type": "Point", "coordinates": [77.43950558296845, -79.35294850122706]}}, {"type": "Feature", "properties": {"norad_id": 33733, "name": "FENGYUN 1C DEB", "group": "fengyun-1c-debris", "lat": -53.83418378184877, "lon": 91.01159114183874, "alt_km": 845.6294070854965, "timestamp": "2025-12-18T17:50:15.243736+00:00", "meta": {"OBJECT_NAME": "FENGYUN 1C DEB", "OBJECT_ID": "1999-025DHW", "EPOCH": "2025-12-14T05:17:42.025920", "MEAN_MOTION": 14.31053637, "ECCENTRICITY": 0.00804283, "INCLINATION": 99.0978, "RA_OF_ASC_NODE": 73.616, "ARG_OF_PERICENTER": 166.2685, "MEAN_ANOMALY": 251.3146, "EPHEMERIS_TYPE": 0, "CLASSIFICATION_TYPE": "U", "NORAD_CAT_ID": 33733, "ELEMENT_SET_NO": 999, "REV_AT_EPOCH": 90469, "BSTAR": 0.0039221093, "MEAN_MOTION_DOT": 0.00010671, "MEAN_MOTION_DDOT": 0}, "tle": {"line1": "1 33733U 99025DHW 25348.22062530  .00010671  00000+0  39221-2 0  9999", "line2": "2 33733  99.0978  73.6160 0080428 166.2685 251.3146 14.31053637904695"}}, "geometry": {"type": "Point", "coordinates": [91.01159114183874, -53.83418378184877]}}, {"type": "Feature", "properties": {"norad_id": 33737, "name": "FENGYUN 1C DEB", "group": "fengyun-1c-debris", "lat": -70.99542939880541, "lon": -19.04191733135953, "alt_km": 799.814860544071, "timestamp": "2025-12-18T17:50:15.243746+00:00", "meta": {"OBJECT_NAME": "FENGYUN 1C DEB", "OBJECT_ID": "1999-025DJA", "EPOCH": "2025-12-18T01:49:45.788160", "MEAN_MOTION": 14.0301989, "ECCENTRICITY": 0.01283776, "INCLINATION": 98.3371, "RA_OF_ASC_NODE": 185.5453, "ARG_OF_PERICENTER": 267.9908, "MEAN_ANOMALY": 218.0852, "EPHEMERIS_TYPE": 0, "CLASSIFICATION_TYPE": "U", "NORAD_CAT_ID": 33737, "ELEMENT_SET_NO": 999, "REV_AT_EPOCH": 88815, "BSTAR": 0.0011217007, "MEAN_MOTION_DOT": 1.834e-05, "MEAN_MOTION_DDOT": 0}, "tle": {"line1": "1 33737U 99025DJA 25352.07622440  .00001834  00000+0  11217-2 0  9999", "line2": "2 33737  98.3371 185.5453 0128377 267.9908 218.0852 14.03019890888157"}}, "geometry": {"type": "Point", "coordinates": [-19.04191733135953, -70.99542939880541]}}, {"type": "Feature", "properties": {"norad_id": 33738, "name": "FENGYUN 1C DEB", "group": "fengyun-1c-debris", "lat": 76.15676168923432, "lon": -86.36823269372849, "alt_km": 898.4765139016699, "timestamp": "2025-12-18T17:50:15.243757+00:00", "meta": {"OBJECT_NAME": "FENGYUN 1C DEB", "OBJECT_ID": "1999-025DJB", "EPOCH": "2025-12-16T10:32:33.645120", "MEAN_MOTION": 13.99537717, "ECCENTRICITY": 0.01845971, "INCLINATION": 99.1516, "RA_OF_ASC_NODE": 50.4728, "ARG_OF_PERICENTER": 11.2707, "MEAN_ANOMALY": 5.2548, "EPHEMERIS_TYPE": 0, "CLASSIFICATION_TYPE": "U", "NORAD_CAT_ID": 33738, "ELEMENT_SET_NO": 999, "REV_AT_EPOCH": 89288, "BSTAR": 0.00049038392, "MEAN_MOTION_DOT": 7.83e-06, "MEAN_MOTION_DDOT": 0}, "tle": {"line1": "1 33738U 99025DJB 25350.43927830  .00000783  00000+0  49038-3 0  9994", "line2": "2 33738  99.1516  50.4728 0184597  11.2707   5.2548 13.99537717892886"}}, "geometry": {"type": "Point", "coordinates": [-86.36823269372849, 76.15676168923432]}}, {"type": "Feature", "properties": {"norad_id": 33740, "name": "FENGYUN 1C DEB", "group": "fengyun-1c-debris", "lat": 51.38635678082766, "lon": -5.565897688979745, "alt_km": 845.9860308703555, "timestamp": "2025-12-18T17:50:15.243767+00:00", "meta": {"OBJECT_NAME": "FENGYUN 1C DEB", "OBJECT_ID": "1999-025DJD", "EPOCH": "2025-12-18T07:23:22.108128", "MEAN_MOTION": 14.12325643, "ECCENTRICITY": 0.00021877, "INCLINATION": 98.6868, "RA_OF_ASC_NODE": 5.0478, "ARG_OF_PERICENTER": 119.664, "MEAN_ANOMALY": 240.475, "EPHEMERIS_TYPE": 0, "CLASSIFICATION_TYPE": "U", "NORAD_CAT_ID": 33740, "ELEMENT_SET_NO": 999, "REV_AT_EPOCH": 90225, "BSTAR": 0.00012962131, "MEAN_MOTION_DOT": 1.96e-06, "MEAN_MOTION_DDOT": 0}, "tle": {"line1": "1 33740U 99025DJD 25352.30789477  .00000196  00000+0  12962-3 0  9992", "line2": "2 33740  98.6868   5.0478 0002187 119.6640 240.4750 14.12325643902254"}}, "geometry": {"type": "Point", "coordinates": [-5.565897688979745, 51.38635678082766]}}]}